STARLINK-1815
1 46713U 20073AV  26092.83335647  .00240145  00000+0  16012-2 0  9998
2 46713  53.0419  82.6893 0006712  70.6192  38.4870 15.74114401  5959
